[{"OBJECT_NAME":"STARLINK-34742","OBJECT_ID":"2025-158L","EPOCH":"2026-03-09T14:02:40.949952","MEAN_MOTION":15.05647543,"ECCENTRICITY":0.0001681,"INCLINATION":97.602,"RA_OF_ASC_NODE":294.03,"ARG_OF_PERICENTER":73.6791,"MEAN_ANOMALY":286.4621,"EPHEMERIS_TYPE":0,"CLASSIFICATION_TYPE":"U","NORAD_CAT_ID":64942,"ELEMENT_SET_NO":999,"REV_AT_EPOCH":3534,"BSTAR":7.4236e-5,"MEAN_MOTION_DOT":1.01e-5,"MEAN_MOTION_DDOT":0},{"OBJECT_NAME":"ATLAS 28E DEB","OBJECT_ID":"1990-031G","EPOCH":"2026-03-09T13:30:42.820704","MEAN_MOTION":15.01077751,"ECCENTRICITY":0.00267601,"INCLINATION":90.3468,"RA_OF_ASC_NODE":293.9289,"ARG_OF_PERICENTER":41.2715,"MEAN_ANOMALY":319.0536,"EPHEMERIS_TYPE":0,"CLASSIFICATION_TYPE":"U","NORAD_CAT_ID":20575,"ELEMENT_SET_NO":999,"REV_AT_EPOCH":38014,"BSTAR":0.00040945673,"MEAN_MOTION_DOT":5.29e-5,"MEAN_MOTION_DDOT":0}]
